CCSDS_OMM_VERS = 2.0
CREATION_DATE  = 
ORIGINATOR     = 

OBJECT_NAME    = ATLAS CENTAUR 2
OBJECT_ID      = 1963-047A
CENTER_NAME    = EARTH
REF_FRAME      = TEME
TIME_SYSTEM    = UTC
MEAN_ELEMENT_THEORY = SGP/SGP4

EPOCH          = 2025-12-05T05:27:31.809600
MEAN_MOTION    = 14.11693608
ECCENTRICITY   = .05492048
INCLINATION    = 30.3581
RA_OF_ASC_NODE = 3.4173
ARG_OF_PERICENTER = 327.9919
MEAN_ANOMALY   = 28.8411

EPHEMERIS_TYPE = 0
CLASSIFICATION_TYPE = U
NORAD_CAT_ID   = 694
ELEMENT_SET_NO = 999
REV_AT_EPOCH   = 11826
BSTAR          = .65175522E-3
MEAN_MOTION_DOT = .5398E-4
MEAN_MOTION_DDOT = 0

CCSDS_OMM_VERS = 2.0
CREATION_DATE  = 
ORIGINATOR     = 

OBJECT_NAME    = THOR AGENA D R/B
OBJECT_ID      = 1964-002A
CENTER_NAME    = EARTH
REF_FRAME      = TEME
TIME_SYSTEM    = UTC
MEAN_ELEMENT_THEORY = SGP/SGP4

EPOCH          = 2025-12-04T23:27:07.274592
MEAN_MOTION    = 14.33952745
ECCENTRICITY   = .00330073
INCLINATION    = 99.1217
RA_OF_ASC_NODE = 342.1761
ARG_OF_PERICENTER = 172.6221
MEAN_ANOMALY   = 187.5454

EPHEMERIS_TYPE = 0
CLASSIFICATION_TYPE = U
NORAD_CAT_ID   = 733
ELEMENT_SET_NO = 999
REV_AT_EPOCH   = 22472
BSTAR          = .19246056E-3
MEAN_MOTION_DOT = .491E-5
MEAN_MOTION_DDOT = 0

CCSDS_OMM_VERS = 2.0
CREATION_DATE  = 
ORIGINATOR     = 

OBJECT_NAME    = SL-3 R/B
OBJECT_ID      = 1964-053B
CENTER_NAME    = EARTH
REF_FRAME      = TEME
TIME_SYSTEM    = UTC
MEAN_ELEMENT_THEORY = SGP/SGP4

EPOCH          = 2025-12-05T04:20:40.007040
MEAN_MOTION    = 14.61264743
ECCENTRICITY   = .00732118
INCLINATION    = 65.0769
RA_OF_ASC_NODE = 248.2894
ARG_OF_PERICENTER = 322.8627
MEAN_ANOMALY   = 36.7419

EPHEMERIS_TYPE = 0
CLASSIFICATION_TYPE = U
NORAD_CAT_ID   = 877
ELEMENT_SET_NO = 999
REV_AT_EPOCH   = 25298
BSTAR          = .18825507E-3
MEAN_MOTION_DOT = .842E-5
MEAN_MOTION_DDOT = 0

CCSDS_OMM_VERS = 2.0
CREATION_DATE  = 
ORIGINATOR     = 

OBJECT_NAME    = SL-8 R/B
OBJECT_ID      = 1967-045B
CENTER_NAME    = EARTH
REF_FRAME      = TEME
TIME_SYSTEM    = UTC
MEAN_ELEMENT_THEORY = SGP/SGP4

EPOCH          = 2025-12-05T05:58:49.327392
MEAN_MOTION    = 14.45525755
ECCENTRICITY   = .00646705
INCLINATION    = 74.0095
RA_OF_ASC_NODE = 164.4496
ARG_OF_PERICENTER = 195.5144
MEAN_ANOMALY   = 164.4034

EPHEMERIS_TYPE = 0
CLASSIFICATION_TYPE = U
NORAD_CAT_ID   = 2802
ELEMENT_SET_NO = 999
REV_AT_EPOCH   = 7537
BSTAR          = .18271375E-3
MEAN_MOTION_DOT = .633E-5
MEAN_MOTION_DDOT = 0

CCSDS_OMM_VERS = 2.0
CREATION_DATE  = 
ORIGINATOR     = 

OBJECT_NAME    = SL-8 R/B
OBJECT_ID      = 1968-040B
CENTER_NAME    = EARTH
REF_FRAME      = TEME
TIME_SYSTEM    = UTC
MEAN_ELEMENT_THEORY = SGP/SGP4

EPOCH          = 2025-12-05T01:11:33.100224
MEAN_MOTION    = 15.02442219
ECCENTRICITY   = .00249366
INCLINATION    = 74.0293
RA_OF_ASC_NODE = 146.9532
ARG_OF_PERICENTER = 350.2904
MEAN_ANOMALY   = 9.7799

EPHEMERIS_TYPE = 0
CLASSIFICATION_TYPE = U
NORAD_CAT_ID   = 3230
ELEMENT_SET_NO = 999
REV_AT_EPOCH   = 7579
BSTAR          = .47493299E-3
MEAN_MOTION_DOT = .6303E-4
MEAN_MOTION_DDOT = 0

CCSDS_OMM_VERS = 2.0
CREATION_DATE  = 
ORIGINATOR     = 

OBJECT_NAME    = OAO 2
OBJECT_ID      = 1968-110A
CENTER_NAME    = EARTH
REF_FRAME      = TEME
TIME_SYSTEM    = UTC
MEAN_ELEMENT_THEORY = SGP/SGP4

EPOCH          = 2025-12-05T06:25:45.818688
MEAN_MOTION    = 14.47236558
ECCENTRICITY   = .00052838
INCLINATION    = 34.9936
RA_OF_ASC_NODE = 72.3710
ARG_OF_PERICENTER = 166.3343
MEAN_ANOMALY   = 193.7491

EPHEMERIS_TYPE = 0
CLASSIFICATION_TYPE = U
NORAD_CAT_ID   = 3597
ELEMENT_SET_NO = 999
REV_AT_EPOCH   = 541
BSTAR          = .16050376E-3
MEAN_MOTION_DOT = .576E-5
MEAN_MOTION_DDOT = 0

CCSDS_OMM_VERS = 2.0
CREATION_DATE  = 
ORIGINATOR     = 

OBJECT_NAME    = ISIS 1
OBJECT_ID      = 1969-009A
CENTER_NAME    = EARTH
REF_FRAME      = TEME
TIME_SYSTEM    = UTC
MEAN_ELEMENT_THEORY = SGP/SGP4

EPOCH          = 2025-12-04T13:30:33.824736
MEAN_MOTION    = 11.30349285
ECCENTRICITY   = .1706872
INCLINATION    = 88.4488
RA_OF_ASC_NODE = 165.6908
ARG_OF_PERICENTER = 281.2251
MEAN_ANOMALY   = 60.2429

EPHEMERIS_TYPE = 0
CLASSIFICATION_TYPE = U
NORAD_CAT_ID   = 3669
ELEMENT_SET_NO = 999
REV_AT_EPOCH   = 33778
BSTAR          = .25752E-3
MEAN_MOTION_DOT = .354E-5
MEAN_MOTION_DDOT = 0

CCSDS_OMM_VERS = 2.0
CREATION_DATE  = 
ORIGINATOR     = 

OBJECT_NAME    = SERT 2
OBJECT_ID      = 1970-009A
CENTER_NAME    = EARTH
REF_FRAME      = TEME
TIME_SYSTEM    = UTC
MEAN_ELEMENT_THEORY = SGP/SGP4

EPOCH          = 2025-12-05T07:23:09.369312
MEAN_MOTION    = 13.58716255
ECCENTRICITY   = .00055695
INCLINATION    = 99.2637
RA_OF_ASC_NODE = 282.6234
ARG_OF_PERICENTER = 51.1647
MEAN_ANOMALY   = 67.5737

EPHEMERIS_TYPE = 0
CLASSIFICATION_TYPE = U
NORAD_CAT_ID   = 4327
ELEMENT_SET_NO = 999
REV_AT_EPOCH   = 76707
BSTAR          = .14151646E-3
MEAN_MOTION_DOT = .62E-6
MEAN_MOTION_DDOT = 0

CCSDS_OMM_VERS = 2.0
CREATION_DATE  = 
ORIGINATOR     = 

OBJECT_NAME    = SL-3 R/B
OBJECT_ID      = 1971-028B
CENTER_NAME    = EARTH
REF_FRAME      = TEME
TIME_SYSTEM    = UTC
MEAN_ELEMENT_THEORY = SGP/SGP4

EPOCH          = 2025-12-05T06:30:43.927200
MEAN_MOTION    = 15.53865425
ECCENTRICITY   = .00195498
INCLINATION    = 81.2366
RA_OF_ASC_NODE = 167.9742
ARG_OF_PERICENTER = 267.4285
MEAN_ANOMALY   = 92.4726

EPHEMERIS_TYPE = 0
CLASSIFICATION_TYPE = U
NORAD_CAT_ID   = 5118
ELEMENT_SET_NO = 999
REV_AT_EPOCH   = 97397
BSTAR          = .6274165E-3
MEAN_MOTION_DOT = .40861E-3
MEAN_MOTION_DDOT = 0

CCSDS_OMM_VERS = 2.0
CREATION_DATE  = 
ORIGINATOR     = 

OBJECT_NAME    = ASTEX 1
OBJECT_ID      = 1971-089A
CENTER_NAME    = EARTH
REF_FRAME      = TEME
TIME_SYSTEM    = UTC
MEAN_ELEMENT_THEORY = SGP/SGP4

EPOCH          = 2025-12-05T07:46:45.380640
MEAN_MOTION    = 14.50628705
ECCENTRICITY   = .00172047
INCLINATION    = 92.7135
RA_OF_ASC_NODE = 121.2200
ARG_OF_PERICENTER = 48.9433
MEAN_ANOMALY   = 311.3256

EPHEMERIS_TYPE = 0
CLASSIFICATION_TYPE = U
NORAD_CAT_ID   = 5560
ELEMENT_SET_NO = 999
REV_AT_EPOCH   = 84862
BSTAR          = .29123502E-3
MEAN_MOTION_DOT = .1143E-4
MEAN_MOTION_DDOT = 0

CCSDS_OMM_VERS = 2.0
CREATION_DATE  = 
ORIGINATOR     = 

OBJECT_NAME    = SL-8 R/B
OBJECT_ID      = 1971-119B
CENTER_NAME    = EARTH
REF_FRAME      = TEME
TIME_SYSTEM    = UTC
MEAN_ELEMENT_THEORY = SGP/SGP4

EPOCH          = 2025-12-05T07:12:45.358272
MEAN_MOTION    = 14.35473339
ECCENTRICITY   = .05600614
INCLINATION    = 73.8879
RA_OF_ASC_NODE = 351.8542
ARG_OF_PERICENTER = 337.6172
MEAN_ANOMALY   = 20.1369

EPHEMERIS_TYPE = 0
CLASSIFICATION_TYPE = U
NORAD_CAT_ID   = 5730
ELEMENT_SET_NO = 999
REV_AT_EPOCH   = 64193
BSTAR          = .85520014E-3
MEAN_MOTION_DOT = .16355E-3
MEAN_MOTION_DDOT = 0

CCSDS_OMM_VERS = 2.0
CREATION_DATE  = 
ORIGINATOR     = 

OBJECT_NAME    = OAO 3 (COPERNICUS)
OBJECT_ID      = 1972-065A
CENTER_NAME    = EARTH
REF_FRAME      = TEME
TIME_SYSTEM    = UTC
MEAN_ELEMENT_THEORY = SGP/SGP4

EPOCH          = 2025-12-04T16:00:27.872928
MEAN_MOTION    = 14.59895075
ECCENTRICITY   = .0005944
INCLINATION    = 35.0046
RA_OF_ASC_NODE = 118.6522
ARG_OF_PERICENTER = 103.7278
MEAN_ANOMALY   = 273.7630

EPHEMERIS_TYPE = 0
CLASSIFICATION_TYPE = U
NORAD_CAT_ID   = 6153
ELEMENT_SET_NO = 999
REV_AT_EPOCH   = 83230
BSTAR          = .16795E-3
MEAN_MOTION_DOT = .795E-5
MEAN_MOTION_DDOT = 0

