ATLAS CENTAUR 2         
1 00694U 63047A   25339.22745150  .00005398  00000+0  65176-3 0  9999
2 00694  30.3581   3.4173 0549204 327.9919  28.8411 14.11693608118264
THOR AGENA D R/B        
1 00733U 64002A   25338.97716753  .00000491  00000+0  19246-3 0  9999
2 00733  99.1217 342.1761 0033007 172.6221 187.5454 14.33952745224726
SL-3 R/B                
1 00877U 64053B   25339.18101860  .00000842  00000+0  18826-3 0  9998
2 00877  65.0769 248.2894 0073211 322.8627  36.7419 14.61264743252982
SL-8 R/B                
1 02802U 67045B   25339.24918203  .00000633  00000+0  18271-3 0  9998
2 02802  74.0095 164.4496 0064670 195.5144 164.4034 14.45525755 75372
SL-8 R/B                
1 03230U 68040B   25339.04968866  .00006303  00000+0  47493-3 0  9996
2 03230  74.0293 146.9532 0024936 350.2904   9.7799 15.02442219 75791
OAO 2                   
1 03597U 68110A   25339.26789142  .00000576  00000+0  16050-3 0  9993
2 03597  34.9936  72.3710 0005283 166.3343 193.7491 14.47236558  5413
ISIS 1                  
1 03669U 69009A   25338.56289149  .00000354  00000+0  25752-3 0  9998
2 03669  88.4488 165.6908 1706872 281.2251  60.2429 11.30349285337780
SERT 2                  
1 04327U 70009A   25339.30774733  .00000062  00000+0  14152-3 0  9991
2 04327  99.2637 282.6234 0005569  51.1647  67.5737 13.58716255767075
SL-3 R/B                
1 05118U 71028B   25339.27134175  .00040861  00000+0  62742-3 0  9997
2 05118  81.2366 167.9742 0019549 267.4285  92.4726 15.53865425973970
ASTEX 1                 
1 05560U 71089A   25339.32413635  .00001143  00000+0  29124-3 0  9999
2 05560  92.7135 121.2200 0017204  48.9433 311.3256 14.50628705848625
SL-8 R/B                
1 05730U 71119B   25339.30052498  .00016355  00000+0  85520-3 0  9999
2 05730  73.8879 351.8542 0560061 337.6172  20.1369 14.35473339641930
OAO 3 (COPERNICUS)      
1 06153U 72065A   25338.66698927  .00000795  00000+0  16795-3 0  9990
2 06153  35.0046 118.6522 0005944 103.7278 273.7630 14.59895075832307
